NORAD_CAT_ID,OBJECT_NAME,OBJECT_TYPE,EPOCH,MEAN_MOTION,ECCENTRICITY,INCLINATION,RA_OF_ASC_NODE,ARG_OF_PERICENTER,MEAN_ANOMALY,BSTAR,MEAN_MOTION_DOT,MEAN_MOTION_DDOT,TLE_LINE0,TLE_LINE1,TLE_LINE2,SEMIMAJOR_AXIS,PERIOD,APOGEE,PERIGEE,DECAYED
49759.0,STARLINK-3204,PAYLOAD,2023-05-03 04:34:41,15.08838483,0.0001269,53.2157,134.5855,81.2861,278.8274,0.00012051,1.63e-05,0.0,0 STARLINK-3204,1 49759U 21115AM  23123.19076168  .00001630  00000-0  12051-3 0  9995,2 49759  53.2157 134.5855 0001269  81.2861 278.8274 15.08838483 79556,6917.885,95.438,540.628,538.872,0.0
49759.0,STARLINK-3204,PAYLOAD,2023-05-03 09:20:51,15.08840767,0.000127,53.2158,133.6934,82.5491,277.5646,0.000136,1.877e-05,0.0,0 STARLINK-3204,1 49759U 21115AM  23123.38948031  .00001877  00000-0  13600-3 0  9997,2 49759  53.2158 133.6934 0001270  82.5491 277.5646 15.08840767 78477,6917.878,95.438,540.622,538.864,0.0
49759.0,STARLINK-3204,PAYLOAD,2023-05-04 02:50:06,15.08836672,0.0001447,53.2171,130.4245,92.8579,267.2579,2.2399e-05,6.9e-07,0.0,0 STARLINK-3204,1 49759U 21115AM  23124.11812639  .00000069  00000-0  22399-4 0  9991,2 49759  53.2171 130.4245 0001447  92.8579 267.2579 15.08836672 79695,6917.891,95.438,540.757,538.755,0.0
49759.0,STARLINK-3204,PAYLOAD,2023-05-04 10:47:01,15.08837927,0.0001359,53.2164,128.9366,88.3261,271.7886,1.6622e-05,-2.3e-07,0.0,0 STARLINK-3204,1 49759U 21115AM  23124.44932588 -.00000023  00000-0  16622-4 0  9996,2 49759  53.2164 128.9366 0001359  88.3261 271.7886 15.08837927 78631,6917.887,95.438,540.692,538.812,0.0
49759.0,STARLINK-3204,PAYLOAD,2023-05-05 09:02:25,15.0884413,0.000131,53.216,124.773,88.1711,271.9432,7.7203e-05,9.41e-06,0.0,0 STARLINK-3204,1 49759U 21115AM  23125.37668048  .00000941  00000-0  77203-4 0  9996,2 49759  53.2160 124.7730 0001310  88.1711 271.9432 15.08844130 79882,6917.868,95.437,540.639,538.827,0.0
49759.0,STARLINK-3204,PAYLOAD,2023-05-05 16:59:21,15.08838731,0.000135,53.2163,123.2865,92.169,267.9457,7.9159e-05,9.72e-06,0.0,0 STARLINK-3204,1 49759U 21115AM  23125.70788397  .00000972  00000-0  79159-4 0  9999,2 49759  53.2163 123.2865 0001350  92.1690 267.9457 15.08838731 78828,6917.884,95.438,540.683,538.815,0.0
49759.0,STARLINK-3204,PAYLOAD,2023-05-05 23:20:53,15.08837882,0.0001284,53.2163,122.0965,93.6092,266.5046,8.5311e-05,1.07e-05,0.0,0 STARLINK-3204,1 49759U 21115AM  23125.97284494  .00001070  00000-0  85311-4 0  9994,2 49759  53.2163 122.0965 0001284  93.6092 266.5046 15.08837882 79976,6917.887,95.438,540.64,538.864,0.0
49759.0,STARLINK-3204,PAYLOAD,2023-05-06 08:53:12,15.08843607,0.0001274,53.2163,120.3122,93.7237,266.3901,0.00012785,1.748e-05,0.0,0 STARLINK-3204,1 49759U 21115AM  23126.37028182  .00001748  00000-0  12785-3 0  9995,2 49759  53.2163 120.3122 0001274  93.7237 266.3901 15.08843607 78927,6917.869,95.437,540.616,538.853,0.0
49759.0,STARLINK-3204,PAYLOAD,2023-05-07 05:33:13,15.08846127,0.0001238,53.2163,116.4449,94.5626,265.5508,6.6832e-05,7.76e-06,0.0,0 STARLINK-3204,1 49759U 21115AM  23127.23140059  .00000776  00000-0  66832-4 0  9992,2 49759  53.2163 116.4449 0001238  94.5626 265.5508 15.08846127 80169,6917.862,95.437,540.583,538.87,0.0
49759.0,STARLINK-3204,PAYLOAD,2023-05-07 16:40:55,15.08843256,0.0001223,53.2166,114.3635,94.0987,266.0145,6.155e-05,6.92e-06,0.0,0 STARLINK-3204,1 49759U 21115AM  23127.69508158  .00000692  00000-0  61550-4 0  9999,2 49759  53.2166 114.3635 0001223  94.0987 266.0145 15.08843256 79122,6917.87,95.437,540.581,538.889,0.0
49759.0,STARLINK-3204,PAYLOAD,2023-05-08 05:24:00,15.08837291,0.0001256,53.2168,111.9849,94.5823,265.5313,3.9281e-05,3.37e-06,0.0,0 STARLINK-3204,1 49759U 21115AM  23128.22500666  .00000337  00000-0  39281-4 0  9997,2 49759  53.2168 111.9849 0001256  94.5823 265.5313 15.08837291 80310,6917.889,95.438,540.623,538.885,0.0
49759.0,STARLINK-3204,PAYLOAD,2023-05-09 05:14:47,15.08841897,0.0001334,53.217,107.5245,97.2191,262.8953,4.8865e-05,4.9e-06,0.0,0 STARLINK-3204,1 49759U 21115AM  23129.21860418  .00000490  00000-0  48865-4 0  9999,2 49759  53.2170 107.5245 0001334  97.2191 262.8953 15.08841897 79358,6917.875,95.437,540.662,538.817,0.0
49759.0,STARLINK-3204,PAYLOAD,2023-05-10 05:05:34,15.08839857,0.0001355,53.2173,103.0646,95.7804,264.3342,9.9925e-05,1.303e-05,0.0,0 STARLINK-3204,1 49759U 21115AM  23130.21220642  .00001303  00000-0  99925-4 0  9997,2 49759  53.2173 103.0646 0001355  95.7804 264.3342 15.08839857 79503,6917.881,95.438,540.683,538.808,0.0
49759.0,STARLINK-3204,PAYLOAD,2023-05-11 04:56:21,15.08859692,0.0001267,53.2178,98.6078,96.6058,263.5079,-0.00018693,-3.263e-05,0.0,0 STARLINK-3204,1 49759U 21115AM  23131.20580258 -.00003263  00000-0 -18693-3 0  9990,2 49759  53.2178  98.6078 0001267  96.6058 263.5079 15.08859692 80766,6917.82,95.436,540.562,538.809,0.0
49759.0,STARLINK-3204,PAYLOAD,2023-05-12 04:47:09,15.08832081,0.0001443,53.2182,94.1477,110.4651,249.6496,-6.0194e-06,-3.84e-06,0.0,0 STARLINK-3204,1 49759U 21115AM  23132.19941896 -.00000384  00000-0 -60194-5 0  9994,2 49759  53.2182  94.1477 0001443 110.4651 249.6496 15.08832081 80913,6917.905,95.438,540.768,538.771,0.0
49759.0,STARLINK-3204,PAYLOAD,2023-05-12 22:16:23,15.08845617,0.0001182,53.2177,90.8738,96.2818,263.8308,8.5138e-05,1.068e-05,0.0,0 STARLINK-3204,1 49759U 21115AM  23132.92804895  .00001068  00000-0  85138-4 0  9994,2 49759  53.2177  90.8738 0001182  96.2818 263.8308 15.08845617 81028,6917.863,95.437,540.546,538.911,0.0
49759.0,STARLINK-3204,PAYLOAD,2023-05-13 04:37:55,15.08852104,0.0001164,53.2176,89.6845,96.8707,263.2418,0.00014047,1.949e-05,0.0,0 STARLINK-3204,1 49759U 21115AM  23133.19300271  .00001949  00000-0  14047-3 0  9991,2 49759  53.2176  89.6845 0001164  96.8707 263.2418 15.08852104 81064,6917.843,95.437,540.514,538.903,0.0
49759.0,STARLINK-3204,PAYLOAD,2023-05-14 04:28:44,15.0883388,0.0001254,53.2185,85.223,84.8458,275.2677,4.326e-05,4.01e-06,0.0,0 STARLINK-3204,1 49759U 21115AM  23134.18662069  .00000401  00000-0  43260-4 0  9999,2 49759  53.2185  85.2230 0001254  84.8458 275.2677 15.08833880 81211,6917.899,95.438,540.632,538.897,0.0
49759.0,STARLINK-3204,PAYLOAD,2023-05-15 01:08:43,15.08850508,0.0001279,53.2191,81.3541,85.6342,274.4796,3.0255e-05,1.94e-06,0.0,0 STARLINK-3204,1 49759U 21115AM  23135.04772933  .00000194  00000-0  30255-4 0  9996,2 49759  53.2191  81.3541 0001279  85.6342 274.4796 15.08850508 81341,6917.848,95.437,540.598,538.828,0.0
49759.0,STARLINK-3204,PAYLOAD,2023-05-15 02:44:06,15.08848272,0.0001182,53.2186,81.0582,106.7615,253.3507,7.2461e-05,8.66e-06,0.0,0 STARLINK-3204,1 49759U 21115AM  23135.11396812  .00000866  00000-0  72461-4 0  9993,2 49759  53.2186  81.0582 0001182 106.7615 253.3507 15.08848272 80247,6917.855,95.437,540.538,538.902,0.0
49759.0,STARLINK-3204,PAYLOAD,2023-05-15 13:51:48,15.08851027,0.0001278,53.2185,78.9783,92.9474,267.1664,3.184e-05,2.19e-06,0.0,0 STARLINK-3204,1 49759U 21115AM  23135.57764597  .00000219  00000-0  31840-4 0  9990,2 49759  53.2185  78.9783 0001278  92.9474 267.1664 15.08851027 80316,6917.847,95.437,540.596,538.828,0.0
49759.0,STARLINK-3204,PAYLOAD,2023-05-16 02:34:54,15.08834584,0.0001437,53.2193,76.6001,91.6289,268.4868,8.7081e-05,1.098e-05,0.0,0 STARLINK-3204,1 49759U 21115AM  23136.10757670  .00001098  00000-0  87081-4 0  9998,2 49759  53.2193  76.6001 0001437  91.6289 268.4868 15.08834584 81501,6917.897,95.438,540.756,538.768,0.0
49759.0,STARLINK-3204,PAYLOAD,2023-05-16 20:04:09,15.08843702,0.0001294,53.2195,73.3289,94.5892,265.5248,-5.9041e-05,-1.227e-05,0.0,0 STARLINK-3204,1 49759U 21115AM  23136.83621617 -.00001227  00000-0 -59041-4 0  9990,2 49759  53.2195  73.3289 0001294  94.5892 265.5248 15.08843702 80509,6917.869,95.437,540.629,538.839,0.0
49759.0,STARLINK-3204,PAYLOAD,2023-05-17 02:25:41,15.08847167,0.0001223,53.2187,72.1406,88.8018,271.3114,-5.2535e-05,-1.124e-05,0.0,0 STARLINK-3204,1 49759U 21115AM  23137.10117299 -.00001124  00000-0 -52535-4 0  9994,2 49759  53.2187  72.1406 0001223  88.8018 271.3114 15.08847167 81659,6917.858,95.437,540.57,538.877,0.0
49759.0,STARLINK-3204,PAYLOAD,2023-05-18 02:16:28,15.08833374,0.0001186,53.2184,67.6825,88.6931,271.4196,7.0336e-05,8.32e-06,0.0,0 STARLINK-3204,1 49759U 21115AM  23138.09477935  .00000832  00000-0  70336-4 0  9991,2 49759  53.2184  67.6825 0001186  88.6931 271.4196 15.08833374 81803,6917.901,95.438,540.586,538.945,0.0
49759.0,STARLINK-3204,PAYLOAD,2023-05-18 05:27:14,15.08840698,0.000118,53.218,67.0863,93.9648,266.1479,3.66e-05,2.95e-06,0.0,0 STARLINK-3204,1 49759U 21115AM  23138.22725557  .00000295  00000-0  36600-4 0  9991,2 49759  53.2180  67.0863 0001180  93.9648 266.1479 15.08840698 80714,6917.878,95.438,540.56,538.927,0.0
49759.0,STARLINK-3204,PAYLOAD,2023-05-19 03:42:38,15.08839907,0.0001171,53.2188,62.9224,96.8955,263.2171,6.8434e-05,8.01e-06,0.0,0 STARLINK-3204,1 49759U 21115AM  23139.15461758  .00000801  00000-0  68434-4 0  9997,2 49759  53.2188  62.9224 0001171  96.8955 263.2171 15.08839907 80853,6917.881,95.438,540.556,538.936,0.0
49759.0,STARLINK-3204,PAYLOAD,2023-05-20 03:33:26,15.0884088,0.0001168,53.2196,58.4626,91.9856,268.127,0.00011935,1.612e-05,0.0,0 STARLINK-3204,1 49759U 21115AM  23140.14821786  .00001612  00000-0  11935-3 0  9993,2 49759  53.2196  58.4626 0001168  91.9856 268.1270 15.08840880 82117,6917.878,95.437,540.551,538.935,0.0
49759.0,STARLINK-3204,PAYLOAD,2023-05-21 03:24:11,15.0885924,0.0001102,53.2193,54.0014,92.5792,267.5327,0.00013553,1.871e-05,0.0,0 STARLINK-3204,1 49759U 21115AM  23141.14180190  .00001871  00000-0  13553-3 0  9996,2 49759  53.2193  54.0014 0001102  92.5792 267.5327 15.08859240 82263,6917.822,95.436,540.449,538.924,0.0
49759.0,STARLINK-3204,PAYLOAD,2023-05-22 03:15:01,15.08829604,0.0001097,53.2193,49.5394,120.6528,239.4572,-9.1541e-05,-1.744e-05,0.0,0 STARLINK-3204,1 49759U 21115AM  23142.13543142 -.00001744  00000-0 -91541-4 0  9991,2 49759  53.2193  49.5394 0001097 120.6528 239.4572 15.08829604 82414,6917.912,95.438,540.536,539.018,0.0
